[{"OBJECT_NAME":"ONEWEB-0161","OBJECT_ID":"2021-025M","EPOCH":"2025-08-16T09:10:36.909696","MEAN_MOTION":13.13468928,"ECCENTRICITY":0.0001655,"INCLINATION":87.8991,"RA_OF_ASC_NODE":20.7742,"ARG_OF_PERICENTER":99.1187,"MEAN_ANOMALY":261.0129,"EPHEMERIS_TYPE":0,"CLASSIFICATION_TYPE":"U","NORAD_CAT_ID":48053,"ELEMENT_SET_NO":999,"REV_AT_EPOCH":21350,"BSTAR":-0.00054399,"MEAN_MOTION_DOT":-1.86e-6,"MEAN_MOTION_DDOT":0},{"OBJECT_NAME":"ONEWEB-0158","OBJECT_ID":"2021-025N","EPOCH":"2025-08-15T21:13:58.106784","MEAN_MOTION":13.13468534,"ECCENTRICITY":0.0001919,"INCLINATION":87.8992,"RA_OF_ASC_NODE":20.8524,"ARG_OF_PERICENTER":93.874,"MEAN_ANOMALY":266.2608,"EPHEMERIS_TYPE":0,"CLASSIFICATION_TYPE":"U","NORAD_CAT_ID":48054,"ELEMENT_SET_NO":999,"REV_AT_EPOCH":21355,"BSTAR":0.0007481,"MEAN_MOTION_DOT":2.86e-6,"MEAN_MOTION_DDOT":0},{"OBJECT_NAME":"ONEWEB-0157","OBJECT_ID":"2021-025P","EPOCH":"2025-08-16T08:48:41.414400","MEAN_MOTION":13.13470092,"ECCENTRICITY":0.0001387,"INCLINATION":87.8988,"RA_OF_ASC_NODE":20.7657,"ARG_OF_PERICENTER":103.1874,"MEAN_ANOMALY":256.941,"EPHEMERIS_TYPE":0,"CLASSIFICATION_TYPE":"U","NORAD_CAT_ID":48055,"ELEMENT_SET_NO":999,"REV_AT_EPOCH":21356,"BSTAR":-0.0005218,"MEAN_MOTION_DOT":-1.78e-6,"MEAN_MOTION_DDOT":0},{"OBJECT_NAME":"ONEWEB-0162","OBJECT_ID":"2021-025Q","EPOCH":"2025-08-16T10:04:04.375776","MEAN_MOTION":13.13470448,"ECCENTRICITY":0.0001739,"INCLINATION":87.8991,"RA_OF_ASC_NODE":20.7542,"ARG_OF_PERICENTER":96.8055,"MEAN_ANOMALY":263.3272,"EPHEMERIS_TYPE":0,"CLASSIFICATION_TYPE":"U","NORAD_CAT_ID":48056,"ELEMENT_SET_NO":999,"REV_AT_EPOCH":21351,"BSTAR":0.0011215,"MEAN_MOTION_DOT":4.22e-6,"MEAN_MOTION_DDOT":0},{"OBJECT_NAME":"ONEWEB-0155","OBJECT_ID":"2021-025R","EPOCH":"2025-08-16T10:14:00.757824","MEAN_MOTION":13.13468882,"ECCENTRICITY":0.0001586,"INCLINATION":87.899,"RA_OF_ASC_NODE":20.7606,"ARG_OF_PERICENTER":90.708,"MEAN_ANOMALY":269.4231,"EPHEMERIS_TYPE":0,"CLASSIFICATION_TYPE":"U","NORAD_CAT_ID":48057,"ELEMENT_SET_NO":999,"REV_AT_EPOCH":21368,"BSTAR":0.00056596,"MEAN_MOTION_DOT":2.19e-6,"MEAN_MOTION_DDOT":0},{"OBJECT_NAME":"ONEWEB-0149","OBJECT_ID":"2021-025S","EPOCH":"2025-08-16T08:56:00.445632","MEAN_MOTION":13.13469729,"ECCENTRICITY":0.0001887,"INCLINATION":87.8987,"RA_OF_ASC_NODE":20.7658,"ARG_OF_PERICENTER":101.3007,"MEAN_ANOMALY":258.8334,"EPHEMERIS_TYPE":0,"CLASSIFICATION_TYPE":"U","NORAD_CAT_ID":48058,"ELEMENT_SET_NO":999,"REV_AT_EPOCH":21348,"BSTAR":-0.00083451,"MEAN_MOTION_DOT":-2.92e-6,"MEAN_MOTION_DDOT":0},{"OBJECT_NAME":"ONEWEB-0148","OBJECT_ID":"2021-025T","EPOCH":"2025-08-15T21:04:12.503136","MEAN_MOTION":13.13468729,"ECCENTRICITY":0.0001885,"INCLINATION":87.8987,"RA_OF_ASC_NODE":20.8888,"ARG_OF_PERICENTER":114.9018,"MEAN_ANOMALY":245.2307,"EPHEMERIS_TYPE":0,"CLASSIFICATION_TYPE":"U","NORAD_CAT_ID":48059,"ELEMENT_SET_NO":999,"REV_AT_EPOCH":21353,"BSTAR":0.00098695,"MEAN_MOTION_DOT":3.73e-6,"MEAN_MOTION_DDOT":0},{"OBJECT_NAME":"ONEWEB-0160","OBJECT_ID":"2021-025U","EPOCH":"2025-08-16T08:26:46.080672","MEAN_MOTION":13.13469809,"ECCENTRICITY":0.0002496,"INCLINATION":87.899,"RA_OF_ASC_NODE":20.7917,"ARG_OF_PERICENTER":84.5046,"MEAN_ANOMALY":275.6368,"EPHEMERIS_TYPE":0,"CLASSIFICATION_TYPE":"U","NORAD_CAT_ID":48060,"ELEMENT_SET_NO":999,"REV_AT_EPOCH":21354,"BSTAR":0.00044759,"MEAN_MOTION_DOT":1.76e-6,"MEAN_MOTION_DDOT":0},{"OBJECT_NAME":"ONEWEB-0163","OBJECT_ID":"2021-025V","EPOCH":"2025-08-16T09:54:31.344192","MEAN_MOTION":13.13470931,"ECCENTRICITY":0.0001464,"INCLINATION":87.899,"RA_OF_ASC_NODE":20.7601,"ARG_OF_PERICENTER":99.237,"MEAN_ANOMALY":260.8924,"EPHEMERIS_TYPE":0,"CLASSIFICATION_TYPE":"U","NORAD_CAT_ID":48061,"ELEMENT_SET_NO":999,"REV_AT_EPOCH":21368,"BSTAR":0.00096882,"MEAN_MOTION_DOT":3.67e-6,"MEAN_MOTION_DDOT":0},{"OBJECT_NAME":"ONEWEB-0159","OBJECT_ID":"2021-025W","EPOCH":"2025-08-15T22:44:08.689920","MEAN_MOTION":13.13471141,"ECCENTRICITY":0.0001618,"INCLINATION":87.8989,"RA_OF_ASC_NODE":20.8343,"ARG_OF_PERICENTER":101.1408,"MEAN_ANOMALY":258.9903,"EPHEMERIS_TYPE":0,"CLASSIFICATION_TYPE":"U","NORAD_CAT_ID":48062,"ELEMENT_SET_NO":999,"REV_AT_EPOCH":21353,"BSTAR":0.00084229,"MEAN_MOTION_DOT":3.2e-6,"MEAN_MOTION_DDOT":0},{"OBJECT_NAME":"ONEWEB-0164","OBJECT_ID":"2021-025X","EPOCH":"2025-08-16T09:15:30.081312","MEAN_MOTION":13.13471283,"ECCENTRICITY":0.0001797,"INCLINATION":87.8988,"RA_OF_ASC_NODE":20.7568,"ARG_OF_PERICENTER":93.7513,"MEAN_ANOMALY":266.3821,"EPHEMERIS_TYPE":0,"CLASSIFICATION_TYPE":"U","NORAD_CAT_ID":48063,"ELEMENT_SET_NO":999,"REV_AT_EPOCH":21358,"BSTAR":-0.00038087,"MEAN_MOTION_DOT":-1.26e-6,"MEAN_MOTION_DDOT":0},{"OBJECT_NAME":"ONEWEB-0167","OBJECT_ID":"2021-025Y","EPOCH":"2025-08-16T09:55:44.550048","MEAN_MOTION":13.13471152,"ECCENTRICITY":0.000114,"INCLINATION":87.8998,"RA_OF_ASC_NODE":20.7847,"ARG_OF_PERICENTER":74.1875,"MEAN_ANOMALY":285.938,"EPHEMERIS_TYPE":0,"CLASSIFICATION_TYPE":"U","NORAD_CAT_ID":48064,"ELEMENT_SET_NO":999,"REV_AT_EPOCH":21356,"BSTAR":0.00095011,"MEAN_MOTION_DOT":3.6e-6,"MEAN_MOTION_DDOT":0},{"OBJECT_NAME":"ONEWEB-0166","OBJECT_ID":"2021-025Z","EPOCH":"2025-08-15T21:40:45.971040","MEAN_MOTION":13.13470487,"ECCENTRICITY":0.0001753,"INCLINATION":87.8985,"RA_OF_ASC_NODE":20.8371,"ARG_OF_PERICENTER":100.8629,"MEAN_ANOMALY":259.2697,"EPHEMERIS_TYPE":0,"CLASSIFICATION_TYPE":"U","NORAD_CAT_ID":48065,"ELEMENT_SET_NO":999,"REV_AT_EPOCH":21357,"BSTAR":-0.00040273,"MEAN_MOTION_DOT":-1.34e-6,"MEAN_MOTION_DDOT":0},{"OBJECT_NAME":"ONEWEB-0151","OBJECT_ID":"2021-025AA","EPOCH":"2025-08-16T08:41:23.057952","MEAN_MOTION":13.13468611,"ECCENTRICITY":0.0001684,"INCLINATION":87.899,"RA_OF_ASC_NODE":20.7698,"ARG_OF_PERICENTER":90.9362,"MEAN_ANOMALY":269.196,"EPHEMERIS_TYPE":0,"CLASSIFICATION_TYPE":"U","NORAD_CAT_ID":48066,"ELEMENT_SET_NO":999,"REV_AT_EPOCH":21358,"BSTAR":-0.00022375,"MEAN_MOTION_DOT":-6.9e-7,"MEAN_MOTION_DDOT":0},{"OBJECT_NAME":"ONEWEB-0170","OBJECT_ID":"2021-025AB","EPOCH":"2025-08-16T08:53:33.747936","MEAN_MOTION":13.13470929,"ECCENTRICITY":0.0001937,"INCLINATION":87.8992,"RA_OF_ASC_NODE":20.7742,"ARG_OF_PERICENTER":80.8941,"MEAN_ANOMALY":279.2407,"EPHEMERIS_TYPE":0,"CLASSIFICATION_TYPE":"U","NORAD_CAT_ID":48067,"ELEMENT_SET_NO":999,"REV_AT_EPOCH":21353,"BSTAR":-0.00057975,"MEAN_MOTION_DOT":-1.99e-6,"MEAN_MOTION_DDOT":0},{"OBJECT_NAME":"ONEWEB-0168","OBJECT_ID":"2021-025AC","EPOCH":"2025-08-15T21:33:26.962272","MEAN_MOTION":13.13468022,"ECCENTRICITY":0.000162,"INCLINATION":87.8992,"RA_OF_ASC_NODE":20.8495,"ARG_OF_PERICENTER":97.7797,"MEAN_ANOMALY":262.3517,"EPHEMERIS_TYPE":0,"CLASSIFICATION_TYPE":"U","NORAD_CAT_ID":48068,"ELEMENT_SET_NO":999,"REV_AT_EPOCH":21348,"BSTAR":-0.0001578,"MEAN_MOTION_DOT":-4.5e-7,"MEAN_MOTION_DDOT":0},{"OBJECT_NAME":"ONEWEB-0173","OBJECT_ID":"2021-025AD","EPOCH":"2025-08-15T21:21:16.305984","MEAN_MOTION":13.13469876,"ECCENTRICITY":0.0001309,"INCLINATION":87.899,"RA_OF_ASC_NODE":20.8594,"ARG_OF_PERICENTER":93.8606,"MEAN_ANOMALY":266.2673,"EPHEMERIS_TYPE":0,"CLASSIFICATION_TYPE":"U","NORAD_CAT_ID":48069,"ELEMENT_SET_NO":999,"REV_AT_EPOCH":21372,"BSTAR":0.00051731,"MEAN_MOTION_DOT":2.02e-6,"MEAN_MOTION_DDOT":0}]
