ONEWEB-0161             
1 48053U 21025M   25228.38237164 -.00000186  00000+0 -54399-3 0  9992
2 48053  87.8991  20.7742 0001655  99.1187 261.0129 13.13468928213505
ONEWEB-0158             
1 48054U 21025N   25227.88470031  .00000286  00000+0  74810-3 0  9998
2 48054  87.8992  20.8524 0001919  93.8740 266.2608 13.13468534213552
ONEWEB-0157             
1 48055U 21025P   25228.36714600 -.00000178  00000+0 -52180-3 0  9994
2 48055  87.8988  20.7657 0001387 103.1874 256.9410 13.13470092213566
ONEWEB-0162             
1 48056U 21025Q   25228.41949509  .00000422  00000+0  11215-2 0  9992
2 48056  87.8991  20.7542 0001739  96.8055 263.3272 13.13470448213512
ONEWEB-0155             
1 48057U 21025R   25228.42639766  .00000219  00000+0  56596-3 0  9991
2 48057  87.8990  20.7606 0001586  90.7080 269.4231 13.13468882213683
ONEWEB-0149             
1 48058U 21025S   25228.37222738 -.00000292  00000+0 -83451-3 0  9996
2 48058  87.8987  20.7658 0001887 101.3007 258.8334 13.13469729213484
ONEWEB-0148             
1 48059U 21025T   25227.87792249  .00000373  00000+0  98695-3 0  9994
2 48059  87.8987  20.8888 0001885 114.9018 245.2307 13.13468729213536
ONEWEB-0160             
1 48060U 21025U   25228.35192223  .00000176  00000+0  44759-3 0  9999
2 48060  87.8990  20.7917 0002496  84.5046 275.6368 13.13469809213541
ONEWEB-0163             
1 48061U 21025V   25228.41286278  .00000367  00000+0  96882-3 0  9997
2 48061  87.8990  20.7601 0001464  99.2370 260.8924 13.13470931213686
ONEWEB-0159             
1 48062U 21025W   25227.94732280  .00000320  00000+0  84229-3 0  9995
2 48062  87.8989  20.8343 0001618 101.1408 258.9903 13.13471141213538
ONEWEB-0164             
1 48063U 21025X   25228.38576483 -.00000126  00000+0 -38087-3 0  9993
2 48063  87.8988  20.7568 0001797  93.7513 266.3821 13.13471283213581
ONEWEB-0167             
1 48064U 21025Y   25228.41371007  .00000360  00000+0  95011-3 0  9991
2 48064  87.8998  20.7847 0001140  74.1875 285.9380 13.13471152213569
ONEWEB-0166             
1 48065U 21025Z   25227.90330985 -.00000134  00000+0 -40273-3 0  9996
2 48065  87.8985  20.8371 0001753 100.8629 259.2697 13.13470487213579
ONEWEB-0151             
1 48066U 21025AA  25228.36207243 -.00000069  00000+0 -22375-3 0  9998
2 48066  87.8990  20.7698 0001684  90.9362 269.1960 13.13468611213583
ONEWEB-0170             
1 48067U 21025AB  25228.37052949 -.00000199  00000+0 -57975-3 0  9999
2 48067  87.8992  20.7742 0001937  80.8941 279.2407 13.13470929213536
ONEWEB-0168             
1 48068U 21025AC  25227.89822873 -.00000045  00000+0 -15780-3 0  9995
2 48068  87.8992  20.8495 0001620  97.7797 262.3517 13.13468022213488
ONEWEB-0173             
1 48069U 21025AD  25227.88977206  .00000202  00000+0  51731-3 0  9995
2 48069  87.8990  20.8594 0001309  93.8606 266.2673 13.13469876213728
